{
    "links": {
        "self": "http://www.neowsapp.com/rest/v1/neo/3892693?api_key=iIulBulltgU6a56xZRHN4H3l9WmuAYTsLGpBGhQ2"
    },
    "id": "3892693",
    "neo_reference_id": "3892693",
    "name": "(2019 VJ3)",
    "designation": "2019 VJ3",
    "nasa_jpl_url": "http://ssd.jpl.nasa.gov/sbdb.cgi?sstr=3892693",
    "absolute_magnitude_h": 23.7,
    "estimated_diameter": {
        "kilometers": {
            "estimated_diameter_min": 0.0483676488,
            "estimated_diameter_max": 0.1081533507
        },
        "meters": {
            "estimated_diameter_min": 48.3676488219,
            "estimated_diameter_max": 108.1533506775
        },
        "miles": {
            "estimated_diameter_min": 0.0300542543,
            "estimated_diameter_max": 0.0672033557
        },
        "feet": {
            "estimated_diameter_min": 158.6865169607,
            "estimated_diameter_max": 354.8338390368
        }
    },
    "is_potentially_hazardous_asteroid": false,
    "close_approach_data": [
        {
            "close_approach_date": "2019-11-04",
            "close_approach_date_full": "2019-Nov-04 10:53",
            "epoch_date_close_approach": 1572864780000,
            "relative_velocity": {
                "kilometers_per_second": "17.0988261336",
                "kilometers_per_hour": "61555.7740808102",
                "miles_per_hour": "38248.3641781568"
            },
            "miss_distance": {
                "astronomical": "0.1304115176",
                "lunar": "50.7300803464",
                "kilometers": "19509285.256427512",
                "miles": "12122507.7301911856"
            },
            "orbiting_body": "Earth"
        }
    ],
    "orbital_data": {
        "orbit_id": "1",
        "orbit_determination_date": "2019-11-06 14:42:23",
        "first_observation_date": "2019-11-02",
        "last_observation_date": "2019-11-06",
        "data_arc_in_days": 4,
        "observations_used": 18,
        "orbit_uncertainty": "9",
        "minimum_orbit_intersection": ".119884",
        "jupiter_tisserand_invariant": "3.567",
        "epoch_osculation": "2458791.5",
        "eccentricity": ".4563136049454843",
        "semi_major_axis": "1.991151029465832",
        "inclination": "29.93212273360323",
        "ascending_node_longitude": "46.30000974721864",
        "orbital_period": "1026.253688051141",
        "perihelion_distance": "1.082561725219366",
        "perihelion_argument": "334.893832457557",
        "aphelion_distance": "2.899740333712298",
        "perihelion_time": "2458770.030932546506",
        "mean_anomaly": "7.531143978576071",
        "mean_motion": ".3507904567764731",
        "equinox": "J2000",
        "orbit_class": {
            "orbit_class_type": "AMO",
            "orbit_class_description": "Near-Earth asteroid orbits similar to that of 1221 Amor",
            "orbit_class_range": "1.017 AU < q (perihelion) < 1.3 AU"
        }
    },
    "is_sentry_object": false
}